ONEWEB-0665             
1 55825U 23029AF  25116.71797289  .00000046  00000+0  89453-4 0  9998
2 55825  87.9091  12.5631 0001677  70.8911 289.2400 13.14503163105385
ONEWEB-0666             
1 55826U 23029AG  25116.90158381  .00000177  00000+0  40356-3 0  9997
2 55826  87.9312 357.3692 0002096  90.0497 270.0877 13.20772766106884
ONEWEB-0667             
1 55827U 23029AH  25116.89526982  .00000032  00000+0  46414-4 0  9994
2 55827  87.9310 357.3027 0001815  73.6243 286.5090 13.20772639106876
ONEWEB-0669             
1 55828U 23029AJ  25116.89054574  .00000010  00000+0 -65144-5 0  9997
2 55828  87.9311 357.3395 0002530  84.4261 275.7161 13.20770965106870
ONEWEB-0670             
1 55829U 23029AK  25116.23906812  .00000279  00000+0  71827-3 0  9996
2 55829  87.9091  12.6742 0001992  67.3745 292.7595 13.14504171105349
ONEWEB-0671             
1 55830U 23029AL  25116.22278004  .00000041  00000+0  70488-4 0  9992
2 55830  87.9260  27.8636 0001919  72.0692 288.0650 13.19728174104594
ONEWEB-0672             
1 55831U 23029AM  25116.43126004  .00000028  00000+0  37382-4 0  9999
2 55831  87.9312 357.4159 0001977  90.1028 270.0331 13.20772833106810
ONEWEB-0673             
1 55832U 23029AN  25116.50234645  .00000021  00000+0  19239-4 0  9993
2 55832  87.9260  27.7721 0001609  75.8732 284.2580 13.19726474104650
